{"type":"FeatureCollection","features":[{"type":"Feature","geometry":{"type":"Point","coordinates":[-96.706936609715584,40.825647862268887]},"properties":{"IntersectionName":"10th & Charleston","IntersectionNumber":"10E12N","TurnCountLink":"http://agssrv04/traffic/TrafficCounts/48th_O_TrafficCounts.pdf","PhasingDiagramLink":"http://agssrv04/traffic/CollisionDiagram/48th_O_CollisionDiagram.pdf","IntersectionType":"Full Intersection"}},{"type":"Feature","geometry":{"type":"Point","coordinates":[-96.707000572531499,40.813644561311449]},"properties":{"IntersectionName":"10th & O","IntersectionNumber":"10E1N","TurnCountLink":"http://agssrv04/traffic/TrafficCounts/48th_O_TrafficCounts.pdf","PhasingDiagramLink":"http://agssrv04/traffic/CollisionDiagram/48th_O_CollisionDiagram.pdf","IntersectionType":"Full Intersection"}},{"type":"Feature","geometry":{"type":"Point","coordinates":[-96.706992144810314,40.814765832767428]},"properties":{"IntersectionName":"10th & P","IntersectionNumber":"10E2N","TurnCountLink":"http://agssrv04/traffic/TrafficCounts/48th_O_TrafficCounts.pdf","PhasingDiagramLink":"http://agssrv04/traffic/CollisionDiagram/48th_O_CollisionDiagram.pdf","IntersectionType":"Full Intersection"}},{"type":"Feature","geometry":{"type":"Point","coordinates":[-96.707006405163995,40.81250894509283]},"properties":{"IntersectionName":"10th & N","IntersectionNumber":"10E2S","TurnCountLink":"http://agssrv04/traffic/TrafficCounts/48th_O_TrafficCounts.pdf","PhasingDiagramLink":"http://agssrv04/traffic/CollisionDiagram/48th_O_CollisionDiagram.pdf","IntersectionType":"Full Intersection"}},{"type":"Feature","geometry":{"type":"Point","coordinates":[-96.706984630118242,40.815860366092672]},"properties":{"IntersectionName":"10th & Q","IntersectionNumber":"10E3N","TurnCountLink":"http://agssrv04/traffic/TrafficCounts/48th_O_TrafficCounts.pdf","PhasingDiagramLink":"http://agssrv04/traffic/CollisionDiagram/48th_O_CollisionDiagram.pdf","IntersectionType":"Full Intersection"}},{"type":"Feature","geometry":{"type":"Point","coordinates":[-96.707012375658607,40.811408675554141]},"properties":{"IntersectionName":"10th & M","IntersectionNumber":"10E3S","TurnCountLink":"http://agssrv04/traffic/TrafficCounts/48th_O_TrafficCounts.pdf","PhasingDiagramLink":"http://agssrv04/traffic/CollisionDiagram/48th_O_CollisionDiagram.pdf","IntersectionType":"Full Intersection"}},{"type":"Feature","geometry":{"type":"Point","coordinates":[-96.707018339150125,40.810309452121849]},"properties":{"IntersectionName":"10th & L","IntersectionNumber":"10E4S","TurnCountLink":"http://agssrv04/traffic/TrafficCounts/48th_O_TrafficCounts.pdf","PhasingDiagramLink":"http://agssrv04/traffic/CollisionDiagram/48th_O_CollisionDiagram.pdf","IntersectionType":"Full Intersection"}},{"type":"Feature","geometry":{"type":"Point","coordinates":[-96.705521754962916,40.813640902932995]},"properties":{"IntersectionName":"11th & O","IntersectionNumber":"11E1N","TurnCountLink":"http://agssrv04/traffic/TrafficCounts/48th_O_TrafficCounts.pdf","PhasingDiagramLink":"http://agssrv04/traffic/CollisionDiagram/48th_O_CollisionDiagram.pdf","IntersectionType":"Full Intersection"}},{"type":"Feature","geometry":{"type":"Point","coordinates":[-96.705510727574648,40.814760094652037]},"properties":{"IntersectionName":"11th & P","IntersectionNumber":"11E2N","TurnCountLink":"http://agssrv04/traffic/TrafficCounts/48th_O_TrafficCounts.pdf","PhasingDiagramLink":"http://agssrv04/traffic/CollisionDiagram/48th_O_CollisionDiagram.pdf","IntersectionType":"Full Intersection"}},{"type":"Feature","geometry":{"type":"Point","coordinates":[-96.705531418254381,40.81250505749415]},"properties":{"IntersectionName":"11th & N","IntersectionNumber":"11E2S","TurnCountLink":"http://agssrv04/traffic/TrafficCounts/48th_O_TrafficCounts.pdf","PhasingDiagramLink":"http://agssrv04/traffic/CollisionDiagram/48th_O_CollisionDiagram.pdf","IntersectionType":"Full Intersection"}},{"type":"Feature","geometry":{"type":"Point","coordinates":[-96.705503283386676,40.815854758436807]},"properties":{"IntersectionName":"11th & Q","IntersectionNumber":"11E3N","TurnCountLink":"http://agssrv04/traffic/TrafficCounts/48th_O_TrafficCounts.pdf","PhasingDiagramLink":"http://agssrv04/traffic/CollisionDiagram/48th_O_CollisionDiagram.pdf","IntersectionType":"Full Intersection"}},{"type":"Feature","geometry":{"type":"Point","coordinates":[-96.705536974652915,40.811404924959923]},"properties":{"IntersectionName":"11th & M","IntersectionNumber":"11E3S","TurnCountLink":"http://agssrv04/traffic/TrafficCounts/48th_O_TrafficCounts.pdf","PhasingDiagramLink":"http://agssrv04/traffic/CollisionDiagram/48th_O_CollisionDiagram.pdf","IntersectionType":"Full Intersection"}},{"type":"Feature","geometry":{"type":"Point","coordinates":[-96.705542522959888,40.810306244632606]},"properties":{"IntersectionName":"11th & L","IntersectionNumber":"11E4S","TurnCountLink":"http://agssrv04/traffic/TrafficCounts/48th_O_TrafficCounts.pdf","PhasingDiagramLink":"http://agssrv04/traffic/CollisionDiagram/48th_O_CollisionDiagram.pdf","IntersectionType":"Full Intersection"}},{"type":"Feature","geometry":{"type":"Point","coordinates":[-96.704042685872352,40.813625589202942]},"properties":{"IntersectionName":"12th & O","IntersectionNumber":"12E1N","TurnCountLink":"http://agssrv04/traffic/TrafficCounts/48th_O_TrafficCounts.pdf","PhasingDiagramLink":"http://agssrv04/traffic/CollisionDiagram/48th_O_CollisionDiagram.pdf","IntersectionType":"Full Intersection"}},{"type":"Feature","geometry":{"type":"Point","coordinates":[-96.704029233552589,40.814754344730169]},"properties":{"IntersectionName":"12th & P","IntersectionNumber":"12E2N","TurnCountLink":"http://agssrv04/traffic/TrafficCounts/48th_O_TrafficCounts.pdf","PhasingDiagramLink":"http://agssrv04/traffic/CollisionDiagram/48th_O_CollisionDiagram.pdf","IntersectionType":"Full Intersection"}},{"type":"Feature","geometry":{"type":"Point","coordinates":[-96.704049113227569,40.812501132244726]},"properties":{"IntersectionName":"12th & N","IntersectionNumber":"12E2S","TurnCountLink":"http://agssrv04/traffic/TrafficCounts/48th_O_TrafficCounts.pdf","PhasingDiagramLink":"http://agssrv04/traffic/CollisionDiagram/48th_O_CollisionDiagram.pdf","IntersectionType":"Full Intersection"}},{"type":"Feature","geometry":{"type":"Point","coordinates":[-96.704021765045169,40.815849138989329]},"properties":{"IntersectionName":"12th & Q","IntersectionNumber":"12E3N","TurnCountLink":"http://agssrv04/traffic/TrafficCounts/48th_O_TrafficCounts.pdf","PhasingDiagramLink":"http://agssrv04/traffic/CollisionDiagram/48th_O_CollisionDiagram.pdf","IntersectionType":"Full Intersection"}},{"type":"Feature","geometry":{"type":"Point","coordinates":[-96.704055555730633,40.811401143728055]},"properties":{"IntersectionName":"12th & M","IntersectionNumber":"12E3S","TurnCountLink":"http://agssrv04/traffic/TrafficCounts/48th_O_TrafficCounts.pdf","PhasingDiagramLink":"http://agssrv04/traffic/CollisionDiagram/48th_O_CollisionDiagram.pdf","IntersectionType":"Full Intersection"}},{"type":"Feature","geometry":{"type":"Point","coordinates":[-96.704061980696565,40.810303012619315]},"properties":{"IntersectionName":"12th & L","IntersectionNumber":"12E4S","TurnCountLink":"http://agssrv04/traffic/TrafficCounts/48th_O_TrafficCounts.pdf","PhasingDiagramLink":"http://agssrv04/traffic/CollisionDiagram/48th_O_CollisionDiagram.pdf","IntersectionType":"Full Intersection"}},{"type":"Feature","geometry":{"type":"Point","coordinates":[-96.70260001923377,40.813623798203089]},"properties":{"IntersectionName":"13th & O","IntersectionNumber":"13E1N","TurnCountLink":"http://agssrv04/traffic/TrafficCounts/48th_O_TrafficCounts.pdf","PhasingDiagramLink":"http://agssrv04/traffic/CollisionDiagram/48th_O_CollisionDiagram.pdf","IntersectionType":"Full Intersection"}},{"type":"Feature","geometry":{"type":"Point","coordinates":[-96.702583847695891,40.814748707211727]},"properties":{"IntersectionName":"13th & P","IntersectionNumber":"13E2N","TurnCountLink":"http://agssrv04/traffic/TrafficCounts/48th_O_TrafficCounts.pdf","PhasingDiagramLink":"http://agssrv04/traffic/CollisionDiagram/48th_O_CollisionDiagram.pdf","IntersectionType":"Full Intersection"}},{"type":"Feature","geometry":{"type":"Point","coordinates":[-96.702606591383997,40.812497299999464]},"properties":{"IntersectionName":"13th & N","IntersectionNumber":"13E2S","TurnCountLink":"http://agssrv04/traffic/TrafficCounts/48th_O_TrafficCounts.pdf","PhasingDiagramLink":"http://agssrv04/traffic/CollisionDiagram/48th_O_CollisionDiagram.pdf","IntersectionType":"Full Intersection"}},{"type":"Feature","geometry":{"type":"Point","coordinates":[-96.702576329382538,40.815843632850466]},"properties":{"IntersectionName":"13th & Q","IntersectionNumber":"13E3N","TurnCountLink":"http://agssrv04/traffic/TrafficCounts/48th_O_TrafficCounts.pdf","PhasingDiagramLink":"http://agssrv04/traffic/CollisionDiagram/48th_O_CollisionDiagram.pdf","IntersectionType":"Full Intersection"}},{"type":"Feature","geometry":{"type":"Point","coordinates":[-96.702613263950369,40.811397442997333]},"properties":{"IntersectionName":"13th & M","IntersectionNumber":"13E3S","TurnCountLink":"http://agssrv04/traffic/TrafficCounts/48th_O_TrafficCounts.pdf","PhasingDiagramLink":"http://agssrv04/traffic/CollisionDiagram/48th_O_CollisionDiagram.pdf","IntersectionType":"Full Intersection"}},{"type":"Feature","geometry":{"type":"Point","coordinates":[-96.702619919018304,40.810299841399193]},"properties":{"IntersectionName":"13th & L","IntersectionNumber":"13E4S","TurnCountLink":"http://agssrv04/traffic/TrafficCounts/48th_O_TrafficCounts.pdf","PhasingDiagramLink":"http://agssrv04/traffic/CollisionDiagram/48th_O_CollisionDiagram.pdf","IntersectionType":"Full Intersection"}},{"type":"Feature","geometry":{"type":"Point","coordinates":[-96.701598920377393,40.825496821252152]},"properties":{"IntersectionName":"14th & Salt Creek Rdwy","IntersectionNumber":"14E13N","TurnCountLink":"http://agssrv04/traffic/TrafficCounts/48th_O_TrafficCounts.pdf","PhasingDiagramLink":"http://agssrv04/traffic/CollisionDiagram/48th_O_CollisionDiagram.pdf","IntersectionType":"Full Intersection"}},{"type":"Feature","geometry":{"type":"Point","coordinates":[-96.701160864096664,40.813620876718161]},"properties":{"IntersectionName":"14th & O","IntersectionNumber":"14E1N","TurnCountLink":"http://agssrv04/traffic/TrafficCounts/48th_O_TrafficCounts.pdf","PhasingDiagramLink":"http://agssrv04/traffic/CollisionDiagram/48th_O_CollisionDiagram.pdf","IntersectionType":"Full Intersection"}},{"type":"Feature","geometry":{"type":"Point","coordinates":[-96.701156875964529,40.814747282481747]},"properties":{"IntersectionName":"14th & P","IntersectionNumber":"14E2N","TurnCountLink":"http://agssrv04/traffic/TrafficCounts/48th_O_TrafficCounts.pdf","PhasingDiagramLink":"http://agssrv04/traffic/CollisionDiagram/48th_O_CollisionDiagram.pdf","IntersectionType":"Full Intersection"}},{"type":"Feature","geometry":{"type":"Point","coordinates":[-96.701163983186007,40.812493450629745]},"properties":{"IntersectionName":"14th & N","IntersectionNumber":"14E2S","TurnCountLink":"http://agssrv04/traffic/TrafficCounts/48th_O_TrafficCounts.pdf","PhasingDiagramLink":"http://agssrv04/traffic/CollisionDiagram/48th_O_CollisionDiagram.pdf","IntersectionType":"Full Intersection"}},{"type":"Feature","geometry":{"type":"Point","coordinates":[-96.70114624411346,40.81584095856681]},"properties":{"IntersectionName":"14th & Q","IntersectionNumber":"14E3N","TurnCountLink":"http://agssrv04/traffic/TrafficCounts/48th_O_TrafficCounts.pdf","PhasingDiagramLink":"http://agssrv04/traffic/CollisionDiagram/48th_O_CollisionDiagram.pdf","IntersectionType":"Full Intersection"}},{"type":"Feature","geometry":{"type":"Point","coordinates":[-96.701170894107079,40.811393724246592]},"properties":{"IntersectionName":"14th & M","IntersectionNumber":"14E3S","TurnCountLink":"http://agssrv04/traffic/TrafficCounts/48th_O_TrafficCounts.pdf","PhasingDiagramLink":"http://agssrv04/traffic/CollisionDiagram/48th_O_CollisionDiagram.pdf","IntersectionType":"Full Intersection"}},{"type":"Feature","geometry":{"type":"Point","coordinates":[-96.701177797692708,40.81029399045002]},"properties":{"IntersectionName":"14th & L","IntersectionNumber":"14E4S","TurnCountLink":"http://agssrv04/traffic/TrafficCounts/48th_O_TrafficCounts.pdf","PhasingDiagramLink":"http://agssrv04/traffic/CollisionDiagram/48th_O_CollisionDiagram.pdf","IntersectionType":"Full Intersection"}},{"type":"Feature","geometry":{"type":"Point","coordinates":[-96.701251649703551,40.820849646470791]},"properties":{"IntersectionName":"14th & Vine","IntersectionNumber":"14E8N","TurnCountLink":"http://agssrv04/traffic/TrafficCounts/48th_O_TrafficCounts.pdf","PhasingDiagramLink":"http://agssrv04/traffic/CollisionDiagram/48th_O_CollisionDiagram.pdf","IntersectionType":"Full Intersection"}},{"type":"Feature","geometry":{"type":"Point","coordinates":[-96.699675549504974,40.813619524920306]},"properties":{"IntersectionName":"Centennial Mall & O","IntersectionNumber":"15E1N","TurnCountLink":"http://agssrv04/traffic/TrafficCounts/48th_O_TrafficCounts.pdf","PhasingDiagramLink":"http://agssrv04/traffic/CollisionDiagram/48th_O_CollisionDiagram.pdf","IntersectionType":"Full Intersection"}},{"type":"Feature","geometry":{"type":"Point","coordinates":[-96.699668220100932,40.814739135323521]},"properties":{"IntersectionName":"Centennial Mall & P","IntersectionNumber":"15E2N","TurnCountLink":"http://agssrv04/traffic/TrafficCounts/48th_O_TrafficCounts.pdf","PhasingDiagramLink":"http://agssrv04/traffic/CollisionDiagram/48th_O_CollisionDiagram.pdf","IntersectionType":"Full Intersection"}},{"type":"Feature","geometry":{"type":"Point","coordinates":[-96.69968250541217,40.812486715631358]},"properties":{"IntersectionName":"Centennial Mall & N","IntersectionNumber":"15E2S","TurnCountLink":"http://agssrv04/traffic/TrafficCounts/48th_O_TrafficCounts.pdf","PhasingDiagramLink":"http://agssrv04/traffic/CollisionDiagram/48th_O_CollisionDiagram.pdf","IntersectionType":"Full Intersection"}},{"type":"Feature","geometry":{"type":"Point","coordinates":[-96.699689450295679,40.811387113592573]},"properties":{"IntersectionName":"Centennial Mall & M","IntersectionNumber":"15E3S","TurnCountLink":"http://agssrv04/traffic/TrafficCounts/48th_O_TrafficCounts.pdf","PhasingDiagramLink":"http://agssrv04/traffic/CollisionDiagram/48th_O_CollisionDiagram.pdf","IntersectionType":"Full Intersection"}},{"type":"Feature","geometry":{"type":"Point","coordinates":[-96.699651056238153,40.810287054881037]},"properties":{"IntersectionName":"Centennial Mall @ L","IntersectionNumber":"15E4S","TurnCountLink":"http://agssrv04/traffic/TrafficCounts/48th_O_TrafficCounts.pdf","PhasingDiagramLink":"http://agssrv04/traffic/CollisionDiagram/48th_O_CollisionDiagram.pdf","IntersectionType":"Pedestrian Intersection"}},{"type":"Feature","geometry":{"type":"Point","coordinates":[-96.698701666149674,40.826917527526476]},"properties":{"IntersectionName":"Antelope Valley & Salt Creek Rdwy (Big \"T\" or \"X\")","IntersectionNumber":"16E13N","TurnCountLink":"http://agssrv04/traffic/TrafficCounts/48th_O_TrafficCounts.pdf","PhasingDiagramLink":"http://agssrv04/traffic/CollisionDiagram/48th_O_CollisionDiagram.pdf","IntersectionType":"Full Intersection"}},{"type":"Feature","geometry":{"type":"Point","coordinates":[-96.698194131733516,40.81360995782169]},"properties":{"IntersectionName":"16th & O","IntersectionNumber":"16E1N","TurnCountLink":"http://agssrv04/traffic/TrafficCounts/48th_O_TrafficCounts.pdf","PhasingDiagramLink":"http://agssrv04/traffic/CollisionDiagram/48th_O_CollisionDiagram.pdf","IntersectionType":"Full Intersection"}},{"type":"Feature","geometry":{"type":"Point","coordinates":[-96.698187277905348,40.814731739961289]},"properties":{"IntersectionName":"16th & P","IntersectionNumber":"16E2N","TurnCountLink":"http://agssrv04/traffic/TrafficCounts/48th_O_TrafficCounts.pdf","PhasingDiagramLink":"http://agssrv04/traffic/CollisionDiagram/48th_O_CollisionDiagram.pdf","IntersectionType":"Full Intersection"}},{"type":"Feature","geometry":{"type":"Point","coordinates":[-96.698201062303141,40.812479961607934]},"properties":{"IntersectionName":"16th & N","IntersectionNumber":"16E2S","TurnCountLink":"http://agssrv04/traffic/TrafficCounts/48th_O_TrafficCounts.pdf","PhasingDiagramLink":"http://agssrv04/traffic/CollisionDiagram/48th_O_CollisionDiagram.pdf","IntersectionType":"Full Intersection"}},{"type":"Feature","geometry":{"type":"Point","coordinates":[-96.69818080791687,40.815830529929897]},"properties":{"IntersectionName":"16th & Q","IntersectionNumber":"16E3N","TurnCountLink":"http://agssrv04/traffic/TrafficCounts/48th_O_TrafficCounts.pdf","PhasingDiagramLink":"http://agssrv04/traffic/CollisionDiagram/48th_O_CollisionDiagram.pdf","IntersectionType":"Full Intersection"}},{"type":"Feature","geometry":{"type":"Point","coordinates":[-96.698208023367016,40.811380490219179]},"properties":{"IntersectionName":"16th & M","IntersectionNumber":"16E3S","TurnCountLink":"http://agssrv04/traffic/TrafficCounts/48th_O_TrafficCounts.pdf","PhasingDiagramLink":"http://agssrv04/traffic/CollisionDiagram/48th_O_CollisionDiagram.pdf","IntersectionType":"Full Intersection"}},{"type":"Feature","geometry":{"type":"Point","coordinates":[-96.698214982940883,40.810280501765021]},"properties":{"IntersectionName":"16th & L","IntersectionNumber":"16E4S","TurnCountLink":"http://agssrv04/traffic/TrafficCounts/48th_O_TrafficCounts.pdf","PhasingDiagramLink":"http://agssrv04/traffic/CollisionDiagram/48th_O_CollisionDiagram.pdf","IntersectionType":"Full Intersection"}},{"type":"Feature","geometry":{"type":"Point","coordinates":[-96.708479363964457,40.813647493892518]},"properties":{"IntersectionName":"9th & O","IntersectionNumber":"9E1N","TurnCountLink":"http://agssrv04/traffic/TrafficCounts/48th_O_TrafficCounts.pdf","PhasingDiagramLink":"http://agssrv04/traffic/CollisionDiagram/48th_O_CollisionDiagram.pdf","IntersectionType":"Full Intersection"}},{"type":"Feature","geometry":{"type":"Point","coordinates":[-96.708473659701895,40.814756816088384]},"properties":{"IntersectionName":"9th & P","IntersectionNumber":"9E2N","TurnCountLink":"http://agssrv04/traffic/TrafficCounts/48th_O_TrafficCounts.pdf","PhasingDiagramLink":"http://agssrv04/traffic/CollisionDiagram/48th_O_CollisionDiagram.pdf","IntersectionType":"Full Intersection"}},{"type":"Feature","geometry":{"type":"Point","coordinates":[-96.708485050787544,40.812512820391639]},"properties":{"IntersectionName":"9th & N","IntersectionNumber":"9E2S","TurnCountLink":"http://agssrv04/traffic/TrafficCounts/48th_O_TrafficCounts.pdf","PhasingDiagramLink":"http://agssrv04/traffic/CollisionDiagram/48th_O_CollisionDiagram.pdf","IntersectionType":"Full Intersection"}},{"type":"Feature","geometry":{"type":"Point","coordinates":[-96.708468301282764,40.815865960621473]},"properties":{"IntersectionName":"9th & Q","IntersectionNumber":"9E3N","TurnCountLink":"http://agssrv04/traffic/TrafficCounts/48th_O_TrafficCounts.pdf","PhasingDiagramLink":"http://agssrv04/traffic/CollisionDiagram/48th_O_CollisionDiagram.pdf","IntersectionType":"Full Intersection"}},{"type":"Feature","geometry":{"type":"Point","coordinates":[-96.70849078230458,40.811412406749916]},"properties":{"IntersectionName":"9th & M","IntersectionNumber":"9E3S","TurnCountLink":"http://agssrv04/traffic/TrafficCounts/48th_O_TrafficCounts.pdf","PhasingDiagramLink":"http://agssrv04/traffic/CollisionDiagram/48th_O_CollisionDiagram.pdf","IntersectionType":"Full Intersection"}},{"type":"Feature","geometry":{"type":"Point","coordinates":[-96.708496513840359,40.810312646619778]},"properties":{"IntersectionName":"9th & L","IntersectionNumber":"9E4S","TurnCountLink":"http://agssrv04/traffic/TrafficCounts/48th_O_TrafficCounts.pdf","PhasingDiagramLink":"http://agssrv04/traffic/CollisionDiagram/48th_O_CollisionDiagram.pdf","IntersectionType":"Full Intersection"}},{"type":"Feature","geometry":{"type":"Point","coordinates":[-96.709999193031479,40.812513476121708]},"properties":{"IntersectionName":"8th & N","IntersectionNumber":"8E2S","TurnCountLink":"http://agssrv04/traffic/TrafficCounts/48th_O_TrafficCounts.pdf","PhasingDiagramLink":"http://agssrv04/traffic/CollisionDiagram/48th_O_CollisionDiagram.pdf","IntersectionType":"Full Intersection"}}]}